{
  "norad_id": 68384,
  "name": "STARLINK-37137",
  "history": [
    {
      "epoch": "2026-04-02T18:00:01.999296Z",
      "apogee_km": 280.0243066224075,
      "perigee_km": 277.8421190066465,
      "latitude_deg": 30.776818521819028,
      "longitude_deg": -43.22039639748084,
      "height_km": 282.8916563799942,
      "semi_major_axis_km": 6657.070212814527,
      "eccentricity": 0.0001639,
      "inclination_deg": 97.2831,
      "raan_deg": 233.5416,
      "arg_perigee_deg": 66.3758,
      "mean_anomaly_deg": 82.6105,
      "mean_motion_rev_day": 15.98372709
    }
  ]
}