{"fetched_at":"2026-04-04T02:03:33Z","count":15623,"tles":[{"name":"STARLINK-37137","line1":"1 68384U 26063E   26092.75002315 -.01732404  89164-3 -37777-2 0  9995","line2":"2 68384  97.2831 233.5416 0001638  66.3758  82.6105 15.98372709  2328","category":"Starlink"}]}